{
  "type": "FeatureCollection",
  "totalFeatures": "unknown",
  "features": [
    {
      "type": "Feature",
      "id": "peta_kabupaten-kota.3",
      "geometry": {
        "type": "MultiPolygon",
        "coordinates": [
          [
            [
              [106.91008, -6.182484],
              [106.896431, -6.177996],
              [106.891236, -6.173327],
              [106.87867, -6.166451],
              [106.881385, -6.162488],
              [106.876877, -6.163494],
              [106.860176, -6.153843],
              [106.860985, -6.152332],
              [106.86116, -6.150891],
              [106.859823, -6.152616],
              [106.855489, -6.150552],
              [106.855783, -6.151894],
              [106.843567, -6.153653],
              [106.841194, -6.15107],
              [106.844055, -6.144986],
              [106.838356, -6.141785],
              [106.837113, -6.146111],
              [106.835671, -6.143172],
              [106.831177, -6.140411],
              [106.830666, -6.135321],
              [106.816745, -6.137064],
              [106.815033, -6.130242],
              [106.80114, -6.133651],
              [106.800217, -6.135602],
              [106.800522, -6.141887],
              [106.790011, -6.14233],
              [106.775085, -6.145234],
              [106.775557, -6.141766],
              [106.768227, -6.14069],
              [106.750855, -6.134427],
              [106.733252, -6.123161],
              [106.727417, -6.117581],
              [106.711335, -6.09591],
              [106.713648, -6.093357],
              [106.720805, -6.091332],
              [106.722261, -6.091973],
              [106.725858, -6.088947],
              [106.727295, -6.089787],
              [106.726313, -6.091314],
              [106.727133, -6.09218],
              [106.729152, -6.089554],
              [106.727929, -6.086272],
              [106.735012, -6.08027],
              [106.741824, -6.086531],
              [106.752321, -6.073263],
              [106.75874, -6.07764],
              [106.752627, -6.095937],
              [106.75116, -6.098308],
              [106.73985, -6.099706],
              [106.739989, -6.100699],
              [106.744997, -6.101937],
              [106.746851, -6.099897],
              [106.750316, -6.099462],
              [106.755094, -6.10346],
              [106.760738, -6.103983],
              [106.764248, -6.102483],
              [106.765116, -6.099438],
              [106.77166, -6.103373],
              [106.77203, -6.10499],
              [106.776682, -6.103634],
              [106.774489, -6.110103],
              [106.776471, -6.106],
              [106.78445, -6.10859],
              [106.78557, -6.111142],
              [106.78568, -6.108133],
              [106.790344, -6.108044],
              [106.789981, -6.100818],
              [106.791274, -6.093467],
              [106.794368, -6.092965],
              [106.797132, -6.095095],
              [106.795763, -6.105429],
              [106.796268, -6.108973],
              [106.8006, -6.10831],
              [106.79869, -6.09683],
              [106.80025, -6.09652],
              [106.802263, -6.102332],
              [106.804403, -6.101947],
              [106.80363, -6.09451],
              [106.807844, -6.116361],
              [106.80901, -6.11691],
              [106.80957, -6.12023],
              [106.81139, -6.1205],
              [106.8118, -6.12266],
              [106.811925, -6.11919],
              [106.81326, -6.12072],
              [106.814514, -6.119444],
              [106.816472, -6.11991],
              [106.8172, -6.1149],
              [106.82756, -6.116326],
              [106.830088, -6.120906],
              [106.84264, -6.12109],
              [106.842476, -6.122604],
              [106.839336, -6.122594],
              [106.840713, -6.123839],
              [106.84335, -6.1235],
              [106.843602, -6.121327],
              [106.846291, -6.119304],
              [106.847464, -6.120454],
              [106.857371, -6.116388],
              [106.858826, -6.114436],
              [106.857645, -6.110998],
              [106.860798, -6.110167],
              [106.861286, -6.114513],
              [106.863391, -6.113995],
              [106.86388, -6.1116],
              [106.872829, -6.104381],
              [106.87206, -6.10844],
              [106.86485, -6.11247],
              [106.86472, -6.12018],
              [106.862465, -6.121489],
              [106.866151, -6.119868],
              [106.865331, -6.113569],
              [106.87137, -6.11037],
              [106.87026, -6.11471],
              [106.872815, -6.11439],
              [106.874816, -6.103156],
              [106.876672, -6.101538],
              [106.877705, -6.101598],
              [106.87742, -6.10522],
              [106.87556, -6.11133],
              [106.87715, -6.10679],
              [106.878051, -6.106935],
              [106.87732, -6.11018],
              [106.87851, -6.10991],
              [106.878676, -6.102349],
              [106.8802, -6.10211],
              [106.87872, -6.10138],
              [106.87905, -6.095],
              [106.87964, -6.09431],
              [106.87984, -6.09854],
              [106.881709, -6.093527],
              [106.882622, -6.094949],
              [106.88222, -6.10637],
              [106.88377, -6.10644],
              [106.88445, -6.09613],
              [106.88697, -6.09729],
              [106.88668, -6.10651],
              [106.88797, -6.10655],
              [106.888325, -6.097253],
              [106.890894, -6.097306],
              [106.89069, -6.10674],
              [106.892332, -6.106853],
              [106.892618, -6.097352],
              [106.905449, -6.097563],
              [106.905156, -6.107001],
              [106.906925, -6.108699],
              [106.907201, -6.104091],
              [106.91038, -6.10344],
              [106.91035, -6.10168],
              [106.907877, -6.100901],
              [106.909267, -6.098939],
              [106.913367, -6.098735],
              [106.91521, -6.10051],
              [106.916269, -6.098959],
              [106.918766, -6.099112],
              [106.91965, -6.10434],
              [106.921444, -6.1039],
              [106.919724, -6.103382],
              [106.920182, -6.100593],
              [106.925581, -6.098594],
              [106.925476, -6.099298],
              [106.926347, -6.099472],
              [106.926889, -6.097527],
              [106.939271, -6.096065],
              [106.939539, -6.097702],
              [106.943011, -6.097921],
              [106.953671, -6.096017],
              [106.953996, -6.094476],
              [106.959047, -6.093829],
              [106.961083, -6.092163],
              [106.965188, -6.093733],
              [106.969866, -6.092187],
              [106.969556, -6.095184],
              [106.970797, -6.096316],
              [106.969658, -6.12059],
              [106.970841, -6.124857],
              [106.969471, -6.127261],
              [106.969146, -6.133323],
              [106.970354, -6.142919],
              [106.972824, -6.146286],
              [106.97168, -6.14612],
              [106.972126, -6.15153],
              [106.970328, -6.155532],
              [106.960578, -6.15567],
              [106.961346, -6.157487],
              [106.958599, -6.159543],
              [106.954481, -6.157649],
              [106.953271, -6.158254],
              [106.951684, -6.163399],
              [106.944397, -6.162994],
              [106.944237, -6.155087],
              [106.940155, -6.155269],
              [106.939971, -6.151423],
              [106.935552, -6.158545],
              [106.921891, -6.162368],
              [106.920365, -6.169805],
              [106.922455, -6.183112],
              [106.91008, -6.182484]
            ]
          ],
          [
            [
              [106.878107, -6.09889],
              [106.876048, -6.100455],
              [106.877195, -6.094705],
              [106.878193, -6.094976],
              [106.878107, -6.09889]
            ]
          ]
        ]
      },
      "geometry_name": "geom",
      "properties": {
        "kdkab": "75",
        "nmprov": "DKI JAKARTA",
        "idkab": "3175",
        "nmkab": "JAKARTA UTARA",
        "kdprov": "31",
        "periode": "2025_1"
      }
    },
    {
      "type": "Feature",
      "id": "peta_kabupaten-kota.4",
      "geometry": {
        "type": "Polygon",
        "coordinates": [
          [
            [106.778417, -6.226918],
            [106.766084, -6.227065],
            [106.76704, -6.2253],
            [106.765491, -6.222308],
            [106.727051, -6.224361],
            [106.720658, -6.224224],
            [106.718258, -6.222846],
            [106.718143, -6.217743],
            [106.720121, -6.21185],
            [106.723482, -6.212442],
            [106.724627, -6.203048],
            [106.723275, -6.197195],
            [106.724754, -6.194038],
            [106.72421, -6.191909],
            [106.716912, -6.193122],
            [106.716452, -6.191418],
            [106.714735, -6.191642],
            [106.714906, -6.190054],
            [106.72435, -6.18508],
            [106.696282, -6.175282],
            [106.694914, -6.174905],
            [106.694471, -6.176177],
            [106.686834, -6.17236],
            [106.687042, -6.168715],
            [106.689425, -6.167018],
            [106.690911, -6.160095],
            [106.687747, -6.159987],
            [106.685868, -6.1282],
            [106.687084, -6.128589],
            [106.691417, -6.113777],
            [106.696404, -6.112877],
            [106.697884, -6.110894],
            [106.693688, -6.107194],
            [106.688957, -6.106362],
            [106.68727, -6.097431],
            [106.693433, -6.095588],
            [106.697441, -6.096586],
            [106.711657, -6.09618],
            [106.724147, -6.113505],
            [106.733252, -6.123161],
            [106.750855, -6.134427],
            [106.768227, -6.14069],
            [106.775557, -6.141766],
            [106.775085, -6.145234],
            [106.790011, -6.14233],
            [106.800522, -6.141887],
            [106.800217, -6.135602],
            [106.80114, -6.133651],
            [106.813187, -6.130124],
            [106.815033, -6.130242],
            [106.816745, -6.137064],
            [106.820055, -6.136353],
            [106.821648, -6.137313],
            [106.826332, -6.147046],
            [106.828308, -6.162253],
            [106.820282, -6.159548],
            [106.804009, -6.161745],
            [106.80159, -6.160112],
            [106.80143, -6.158043],
            [106.800614, -6.160233],
            [106.798149, -6.161385],
            [106.809632, -6.179302],
            [106.810654, -6.188723],
            [106.806748, -6.189106],
            [106.80452, -6.196937],
            [106.797714, -6.203137],
            [106.796059, -6.207581],
            [106.79056, -6.20746],
            [106.788994, -6.208493],
            [106.787323, -6.207048],
            [106.783142, -6.20672],
            [106.783173, -6.212947],
            [106.777679, -6.213624],
            [106.777077, -6.216579],
            [106.77843, -6.217652],
            [106.778417, -6.226918]
          ]
        ]
      },
      "geometry_name": "geom",
      "properties": {
        "kdkab": "74",
        "nmprov": "DKI JAKARTA",
        "idkab": "3174",
        "nmkab": "JAKARTA BARAT",
        "kdprov": "31",
        "periode": "2025_1"
      }
    },
    {
      "type": "Feature",
      "id": "peta_kabupaten-kota.5",
      "geometry": {
        "type": "Polygon",
        "coordinates": [
          [
            [106.799591, -6.228997],
            [106.795616, -6.228415],
            [106.796931, -6.218707],
            [106.795761, -6.212493],
            [106.79343, -6.211732],
            [106.791799, -6.208758],
            [106.792389, -6.207788],
            [106.796059, -6.207581],
            [106.797714, -6.203137],
            [106.804283, -6.197341],
            [106.806748, -6.189106],
            [106.810677, -6.188518],
            [106.809632, -6.179302],
            [106.798149, -6.161385],
            [106.800614, -6.160233],
            [106.80143, -6.158043],
            [106.80159, -6.160112],
            [106.804009, -6.161745],
            [106.820282, -6.159548],
            [106.828308, -6.162253],
            [106.826332, -6.147046],
            [106.821274, -6.136871],
            [106.830666, -6.135321],
            [106.831177, -6.140411],
            [106.835671, -6.143172],
            [106.837113, -6.146111],
            [106.838356, -6.141785],
            [106.844055, -6.144986],
            [106.841194, -6.15107],
            [106.843567, -6.153653],
            [106.855783, -6.151894],
            [106.855489, -6.150552],
            [106.859823, -6.152616],
            [106.86116, -6.150891],
            [106.860176, -6.153843],
            [106.876877, -6.163494],
            [106.881385, -6.162488],
            [106.878673, -6.16644],
            [106.876114, -6.17568],
            [106.875023, -6.192335],
            [106.86612, -6.192455],
            [106.861725, -6.193864],
            [106.85081, -6.201199],
            [106.851456, -6.202443],
            [106.855286, -6.202552],
            [106.855087, -6.205792],
            [106.853783, -6.206577],
            [106.84993, -6.205592],
            [106.84715, -6.208609],
            [106.837166, -6.205395],
            [106.822708, -6.202699],
            [106.821594, -6.209229],
            [106.818596, -6.214368],
            [106.799591, -6.228997]
          ]
        ]
      },
      "geometry_name": "geom",
      "properties": {
        "kdkab": "73",
        "nmprov": "DKI JAKARTA",
        "idkab": "3173",
        "nmkab": "JAKARTA PUSAT",
        "kdprov": "31",
        "periode": "2025_1"
      }
    },
    {
      "type": "Feature",
      "id": "peta_kabupaten-kota.6",
      "geometry": {
        "type": "Polygon",
        "coordinates": [
          [
            [106.874382, -6.361421],
            [106.87137, -6.360069],
            [106.873902, -6.356352],
            [106.871216, -6.352892],
            [106.862213, -6.357338],
            [106.860676, -6.354664],
            [106.861814, -6.353633],
            [106.859115, -6.351726],
            [106.859082, -6.349341],
            [106.857746, -6.349188],
            [106.856727, -6.347053],
            [106.856442, -6.347823],
            [106.854195, -6.346553],
            [106.854714, -6.343979],
            [106.852028, -6.342848],
            [106.849623, -6.338738],
            [106.845277, -6.337021],
            [106.843547, -6.337684],
            [106.843694, -6.336797],
            [106.839737, -6.335324],
            [106.840119, -6.332225],
            [106.843399, -6.331597],
            [106.840241, -6.329414],
            [106.841309, -6.32669],
            [106.842179, -6.327716],
            [106.843109, -6.326263],
            [106.840042, -6.322776],
            [106.840874, -6.32137],
            [106.838295, -6.321086],
            [106.839211, -6.319396],
            [106.843834, -6.318456],
            [106.844206, -6.316721],
            [106.846157, -6.317047],
            [106.848351, -6.315114],
            [106.848477, -6.317139],
            [106.846795, -6.317994],
            [106.849261, -6.318787],
            [106.851727, -6.315988],
            [106.852364, -6.311066],
            [106.854447, -6.312185],
            [106.854881, -6.313829],
            [106.858322, -6.311088],
            [106.856774, -6.30988],
            [106.858452, -6.305379],
            [106.854737, -6.303329],
            [106.854813, -6.299658],
            [106.851624, -6.301094],
            [106.849777, -6.299766],
            [106.849678, -6.298874],
            [106.852143, -6.298979],
            [106.850655, -6.295853],
            [106.854241, -6.295954],
            [106.85397, -6.29379],
            [106.85228, -6.294538],
            [106.854537, -6.290648],
            [106.85022, -6.292499],
            [106.849289, -6.290472],
            [106.851158, -6.288454],
            [106.848488, -6.288068],
            [106.847336, -6.285712],
            [106.848763, -6.283681],
            [106.847462, -6.283037],
            [106.850346, -6.279704],
            [106.847616, -6.280039],
            [106.846588, -6.279079],
            [106.849213, -6.276591],
            [106.851647, -6.276175],
            [106.851303, -6.273455],
            [106.85334, -6.273265],
            [106.853584, -6.271982],
            [106.85672, -6.272687],
            [106.854843, -6.270412],
            [106.856507, -6.270157],
            [106.853973, -6.265088],
            [106.857121, -6.263778],
            [106.854325, -6.262163],
            [106.859205, -6.262847],
            [106.860504, -6.257686],
            [106.859314, -6.256819],
            [106.86071, -6.255186],
            [106.859464, -6.254377],
            [106.857781, -6.255272],
            [106.857735, -6.253223],
            [106.86018, -6.250985],
            [106.861167, -6.254007],
            [106.86269, -6.253495],
            [106.86219, -6.250468],
            [106.864052, -6.249419],
            [106.862004, -6.246463],
            [106.863014, -6.238899],
            [106.864731, -6.236798],
            [106.866844, -6.238765],
            [106.865232, -6.235267],
            [106.866127, -6.233753],
            [106.86322, -6.230864],
            [106.864838, -6.22888],
            [106.863533, -6.224649],
            [106.86525, -6.224425],
            [106.865296, -6.223348],
            [106.862877, -6.219701],
            [106.861557, -6.219973],
            [106.861504, -6.221704],
            [106.860062, -6.221212],
            [106.863533, -6.216266],
            [106.860453, -6.217326],
            [106.858631, -6.216273],
            [106.857514, -6.217661],
            [106.856491, -6.216798],
            [106.858231, -6.213581],
            [106.857528, -6.212213],
            [106.849044, -6.207562],
            [106.84993, -6.205592],
            [106.853928, -6.206577],
            [106.855683, -6.204666],
            [106.85511, -6.20243],
            [106.851029, -6.201627],
            [106.863167, -6.193153],
            [106.875023, -6.192335],
            [106.876084, -6.175886],
            [106.878807, -6.166463],
            [106.891236, -6.173327],
            [106.896431, -6.177996],
            [106.901364, -6.178539],
            [106.91008, -6.182484],
            [106.922455, -6.183112],
            [106.920365, -6.169805],
            [106.921891, -6.162368],
            [106.935552, -6.158545],
            [106.939971, -6.151423],
            [106.940155, -6.155269],
            [106.944237, -6.155087],
            [106.944397, -6.162994],
            [106.951684, -6.163399],
            [106.954025, -6.157789],
            [106.958599, -6.159543],
            [106.961346, -6.157487],
            [106.960578, -6.15567],
            [106.963918, -6.156266],
            [106.967581, -6.154824],
            [106.967928, -6.155868],
            [106.971108, -6.154361],
            [106.971516, -6.183487],
            [106.972994, -6.185557],
            [106.972996, -6.189417],
            [106.971909, -6.189515],
            [106.971348, -6.192595],
            [106.969761, -6.191216],
            [106.969223, -6.19541],
            [106.966136, -6.200883],
            [106.966202, -6.20693],
            [106.962786, -6.212231],
            [106.959147, -6.212352],
            [106.957711, -6.217679],
            [106.954549, -6.217457],
            [106.953759, -6.219308],
            [106.950829, -6.219087],
            [106.948624, -6.222211],
            [106.945491, -6.236821],
            [106.942681, -6.237572],
            [106.943779, -6.243554],
            [106.944932, -6.244062],
            [106.944918, -6.245185],
            [106.94403, -6.244874],
            [106.943973, -6.252333],
            [106.940855, -6.253481],
            [106.921875, -6.254443],
            [106.920266, -6.251481],
            [106.919307, -6.25264],
            [106.918467, -6.251458],
            [106.915354, -6.252595],
            [106.915432, -6.253647],
            [106.917956, -6.25451],
            [106.91792, -6.256471],
            [106.914794, -6.256906],
            [106.912029, -6.255248],
            [106.909698, -6.255498],
            [106.909928, -6.257999],
            [106.905319, -6.260094],
            [106.90435, -6.262069],
            [106.905535, -6.26328],
            [106.904595, -6.266185],
            [106.905686, -6.267638],
            [106.904285, -6.270326],
            [106.910073, -6.272799],
            [106.907935, -6.28249],
            [106.910457, -6.286989],
            [106.909341, -6.290873],
            [106.911806, -6.290251],
            [106.910407, -6.291422],
            [106.91168, -6.291979],
            [106.910194, -6.294267],
            [106.912378, -6.294688],
            [106.911073, -6.295957],
            [106.911827, -6.298256],
            [106.913483, -6.298888],
            [106.914892, -6.29706],
            [106.917702, -6.297985],
            [106.917894, -6.299683],
            [106.91922, -6.299148],
            [106.918923, -6.300594],
            [106.920654, -6.300198],
            [106.921829, -6.303387],
            [106.920634, -6.312011],
            [106.922806, -6.31424],
            [106.920426, -6.321099],
            [106.921697, -6.32296],
            [106.918287, -6.327331],
            [106.920114, -6.327702],
            [106.920944, -6.330863],
            [106.91954, -6.338647],
            [106.918259, -6.339186],
            [106.919571, -6.341113],
            [106.918503, -6.342448],
            [106.919427, -6.343601],
            [106.917343, -6.343845],
            [106.916414, -6.346425],
            [106.917365, -6.348064],
            [106.916396, -6.348709],
            [106.917932, -6.35032],
            [106.917455, -6.353359],
            [106.915578, -6.354968],
            [106.91714, -6.356434],
            [106.913605, -6.358816],
            [106.916207, -6.362889],
            [106.914894, -6.363288],
            [106.914356, -6.365567],
            [106.910439, -6.363757],
            [106.906364, -6.359688],
            [106.901169, -6.36952],
            [106.897591, -6.368753],
            [106.89437, -6.370833],
            [106.888973, -6.368091],
            [106.887392, -6.372627],
            [106.88596, -6.372625],
            [106.88193, -6.371551],
            [106.883438, -6.370347],
            [106.882668, -6.369878],
            [106.883899, -6.367895],
            [106.883629, -6.365103],
            [106.882191, -6.364978],
            [106.881081, -6.366613],
            [106.880654, -6.364638],
            [106.877968, -6.363198],
            [106.87883, -6.361035],
            [106.874382, -6.361421]
          ]
        ]
      },
      "geometry_name": "geom",
      "properties": {
        "kdkab": "72",
        "nmprov": "DKI JAKARTA",
        "idkab": "3172",
        "nmkab": "JAKARTA TIMUR",
        "kdprov": "31",
        "periode": "2025_1"
      }
    }
  ]
}